Title,Address,Car,Moto,Money,Lat,Lon
TIMES台南民生路停車場,臺南市中西區民生路2段61號東南側空地,21,0,無提供資訊,22.995,120.197607
竑穗興業有限公司建業停車場,臺南市中西區建業街58號,50,0,無提供資訊,22.987918,120.205482
郭綜合醫院立體停車場,臺南市中西區民生路2段27號,106,0,無提供資訊,22.994758,120.19839
大億麗緻酒店收費停車場,臺南市中西區西門路1段660號B3-B4,201,0,無提供資訊,22.988343,120.198262
新光三越百貨股份有限公司台南西門分公司停車場,臺南市中西區西門路1段658號,1515,0,無提供資訊,22.987029,120.200107
文化中心廣場停車場,臺南市東區文化中心外側廣場,48,0,20/時,22.974732,120.221648
娛樂城停車場,臺南市中西區公園路60號,84,0,無提供資訊,22.995506,120.206413
赤崁樓停車場,臺南市中西區民族路2段212號,92,0,無提供資訊,22.996785,120.202848
府城停車場,臺南市中西區民權路2段118號地下1樓,23,0,無提供資訊,22.995699,120.203814
台灣聯通民生場,臺南市中西區民生路2段279號,132,0,無提供資訊,22.996694,120.192082
民族停車場,臺南市中西區民族路2段81號,28,0,無提供資訊,22.994521,120.209264
統穩停車場,臺南市中西區康樂街96號,51,19,無提供資訊,22.992904,120.19455
永福停車場,臺南市中西區永福路2段133號,25,0,無提供資訊,22.994232,120.201362
新光三越(股)機車停車場,臺南市中西區北門路1段123巷56號,0,127,無提供資訊,22.994817,120.210246
台灣聯通台南忠義場,臺南市中西區忠義路2段177號旁(觀音段718、726、727、728地號),13,0,無提供資訊,22.996748,120.204157
衛生福利部臺南醫院收費停車場,臺南市中西區中山路125號,363,403,無提供資訊,22.995136,120.20891
新光三越百貨股份有限公司台南中山分公司停車場,臺南市中西區中山路162號,272,0,無提供資訊,22.994518,120.209903
嘟嘟房置地廣場站停車場,臺南市中西區和意路1號B1~B3、B5(部分)、B6、B7(部分),808,1134,無提供資訊,22.988378,120.199673
新光三越百貨股份有限公司台南西門分公司二館停車場,臺南市中西區永福路1段189號地下4樓,212,0,無提供資訊,22.988378,120.199673
FOCUS停車場,臺南市中西區中山路166號,238,0,無提供資訊,22.995827,120.21034
友愛停車場,臺南市中西區永福段648、649地號,7,0,無提供資訊,22.994318,120.201459
鈦興停車場,臺南市中西區健康路1段390巷地下室,44,0,無提供資訊,22.981965,120.198724
成功路停車場,臺南市中西區忠義路2段237號旁(觀音段577、580、581、582地號),25,0,無提供資訊,22.998212,120.204623
TIMES台南忠義成功停車場,臺南市中西區忠義路2段236號北側空地（觀音段415、416地號）,21,0,無提供資訊,22.997686,120.204623
台南西門停車場,臺南市中西區友愛街177號對面,69,0,無提供資訊,22.991848,120.197869
嘉年華購物中心停車場,臺南市仁德區仁愛村仁愛1213號,895,391,無提供資訊,22.947817,120.219287
台糖仁德停車場,臺南市仁德區仁愛村28鄰1126-11號,268,0,無提供資訊,22.946122,120.219752
泰豐停車場,臺南市仁德區中洲里307-2號,0,152,無提供資訊,22.904892,120.252826
國賓停車場,臺南市北區成功路2號地下3樓,84,0,無提供資訊,22.998143,120.21147
竑穗興業有限公司開元停車場,臺南市北區開元路181號,99,0,無提供資訊,23.007221,120.219127
成功大學醫學中心附屬停車場,臺南市中西區勝利路138號,56,81,無提供資訊,23.002181,120.218977
成大醫院汽機車停車場,臺南市北區小東路35號,433,485,無提供資訊,23.001177,120.21701
見橋停車場,臺南市永康區中華路870號旁空地,0,91,無提供資訊,23.021339,120.22181
奇美醫療財團法人奇美醫院停車場,臺南市永康區頂南段598~602、604、607-1、607-2、608、610~615、616-1、617-1、618~620、798、799、802~805地號等26筆土地(中正南路52巷),231,861,無提供資訊,23.020665,120.221036
奇美醫院來賓第三停車場,臺南市永康區中正南路52巷68弄內,152,0,無提供資訊,23.019841,120.218857
品億商行停車場,臺南市永康區永和段55地號土地(忠孝路與中山南路316巷路口東北側),0,0,無提供資訊,23.015162,120.242686
永康市復國里停(七)停車場,臺南市永康區復國一路150巷26號邊,45,0,無提供資訊,23.005257,120.247223
TIMES寶雅台南永康停車場,臺南市永康區中華路106號,13,0,無提供資訊,23.002719,120.235188
和益停車場,臺南市永康區永康車站旁,0,76,無提供資訊,23.038336,120.253523
凱得停車場,臺南市永康區國光八街108號旁空地（大灣段6829、6832地號）,20,0,無提供資訊,23.011418,120.259606
永康區農會停車場,臺南市永康區中正南路635號,12,7,無提供資訊,23.025496,120.255012
國立臺灣歷史博物館遊客停車場,臺南市安南區長和路1段250號,214,0,無提供資訊,23.059165,120.231786
竤穗興業有限公司中醫安南停車場,臺南市安南區長和路2段66號,291,99,無提供資訊,23.064159,120.223784
億載金城停車場,臺南市安平區光州路3號,40,0,無提供資訊,22.988582,120.160021
義豐停車場,臺南市安平區王城路(古堡段2000地號),101,0,無提供資訊,23.00341,120.157302
古堡停車場,臺南市安平區安平路185號,39,0,無提供資訊,23.0000868,120.1602432
大遠百停車場,臺南市東區前鋒路210號,562,0,無提供資訊,22.996316,120.214833
東安臨時停車場,臺南市東區東安路32號,97,0,無提供資訊,22.991875,120.226227
台灣聯通成大勝利場,臺南市中西區勝利路116-118號B1-B3,264,800,無提供資訊,22.995221,120.218049
寶立成停車場,臺南市東區中華東路2段22巷14弄西側,4,0,無提供資訊,22.987912,120.232912
德化堂停車場,臺南市東區長榮路2段60號(東安段247及655地號),86,0,無提供資訊,22.988114,120.219378
新樓醫院停車場,臺南市東區東門路1段57號,177,0,無提供資訊,22.989099,120.212687
德安百貨本館停車場,臺南市東區中華東路3段360號,372,353,無提供資訊,22.974119,120.220165
台糖長榮酒店（台南）第二停車場,臺南市東區竹篙厝段4064地號土地(中華東路3段399巷),121,0,無提供資訊,22.97309,120.220453
國賓影城股份有限公司台南中華分公司地下停車場,臺南市東區中華東路1段66號地下1、2層,96,230,無提供資訊,22.99683,120.234029
國立成功大學大學路地下停車場,臺南市東區大學路1號,143,0,無提供資訊,22.99661,120.216811
國聯停車場,臺南市東區中華東路1段92號地下2樓,116,0,無提供資訊,22.994737,120.233848
松興停車場,臺南市東區前鋒路149號左側,0,158,無提供資訊,23.003083,120.214889
南紡夢時代停車場,臺南市東區中華東路1段366號,897,1975,無提供資訊,22.989882,120.233606
台灣聯通台南裕農停車場,臺南市東區裕農路375號旁,140,0,無提供資訊,22.987197,120.229929
崇善停車場,臺南市東區崇善路913巷6弄口（德高段349地號）,4,0,無提供資訊,22.965755,120.233832
TIMES台南樹林街停車場,臺南市南區大德街178號東側空地(樹林街交叉口),65,0,無提供資訊,22.986278,120.195493
台南航空站停車場,臺南市南區大同路2段1002號地下室1樓,108,0,無提供資訊,22.947833,120.216238
金華停車場,臺南市南區新興段221、221-7地號(尊南街37巷南側),67,0,無提供資訊,23.001014,120.196202
奇美醫院柳營分院停車場,臺南市柳營區太康村201號,296,0,無提供資訊,23.290288,120.325346
柳營新天地停車場,臺南市柳營區太康村201-10號,346,304,無提供資訊,23.289913,120.329166
尖山埤江南渡假村停車場,臺南市柳營區旭山里60號,314,0,無提供資訊,23.266749,120.392637
嘟嘟房高鐵台南站停車場,臺南市歸仁區歸仁大道100號,671,433,無提供資訊,22.925635,120.286259
龍昇停車場,臺南市歸仁區武東段130-2地號(歸仁大道近歸仁五路北側),98,0,無提供資訊,22.928848,120.284877
詮營股份有限公司台南（一）收費處,臺南市歸仁區武東段241地號(高鐵橋下-歸仁八路與歸仁十路間),151,0,無提供資訊,22.926779,120.285249
五都停車場高鐵台南三站,臺南市歸仁區武當路與高鐵大道交叉口（武東段268地號）,62,0,無提供資訊,22.922966,120.28526
馬上停停車場,臺南市歸仁區台南高鐵特定區歸仁八路與武當路交叉口,483,0,無提供資訊,22.927858,120.28277
車寶貝停車場,臺南市歸仁區台南高鐵特定區歸仁八路與武當路交叉口（武東段261、261-1地號）,469,0,無提供資訊,22.927864,120.282613
五都停車場,臺南市歸仁區高鐵大道與高鐵一路交叉口（武東段366-6~366-12地號）,189,0,無提供資訊,22.923121,120.283008
行政院衛生署新營醫院停車場,臺南市新營區信義街73號,68,128,無提供資訊,23.308881,120.313388
七股鹽山停車場,臺南市七股區鹽埕里66號,80,22,無提供資訊,23.154948,120.098966
關子嶺風景特定區白河水庫停車場,臺南市白河區仙草里1-18號,20,7,無提供資訊,23.333585,120.458797
烏山頭水庫風景區停車場,臺南市官田區嘉南里68-2號,318,5,無提供資訊,23.207948,120.363147
虎頭埤風景區附設停車場,臺南市新化區中興路42巷36號,43,26,無提供資訊,23.027103,120.335162
走馬瀨農場停車場,臺南市大內區二溪里唭子瓦60號,137,10,無提供資訊,23.136501,120.429929
曾文水庫風景區停車場,臺南市楠西區密枝里70號,152,9,無提供資訊,23.210457,120.496897
麻豆新樓醫院附設停車場,臺南市麻豆區苓子林20號,116,361,無提供資訊,23.180225,120.232857
文慧停車場,臺南市關廟區花園一街80號旁(北花段994地號),3,0,無提供資訊,22.961623,120.336446
文化中心森活機車停車場,臺南市東區臺南市東區中華東路3段380巷及452巷8弄交叉口,0,389,計次10元/時/跨日另計費,22.98133,120.2224227
崇善路龍山停車場,臺南市東區臺南市東區崇善路25巷內,144,23,小型車為每半小時/10元(身障者半價優惠)，前30分鐘內免費，當日最高收費200元，月票2，500元(身障者優惠價為1，500元)，機車暫不收費。另提供敦親睦鄰優惠方案，優惠龍山里與德光里，里民月票優惠價為1，750元(7折)，住民或工作者月票優惠價為2，125元(85折)。,22.98133,120.2224227
海安路地下停車場,臺南市中西區海安路一段188號,891,0,20元/時,22.991171,120.195711
明年的旅程,,我,愛,妳,7.719279,134.613665